start=new Date('2023-05-21T00:00:00.000Z').valueOf();
sats=[{"REF_FRAME":"TEME","MEAN_ANOMALY":"269.4376","REV_AT_EPOCH":"12618","SEMIMAJOR_AXIS":"6925.192","RA_OF_ASC_NODE":"318.2033","TIME_SYSTEM":"UTC","LAUNCH_DATE":"2021-02-04","COUNTRY_CODE":"US","NORAD_CAT_ID":"47597","APOAPSIS":"547.639","EPHEMERIS_TYPE":"0","OBJECT_ID":"2021-009BB","PERIOD":"95.589","EPOCH":"2023-05-20T18:18:02.545344","TLE_LINE2":"2 47597  53.0539 318.2033 0000841  90.6709 269.4376 15.06451207126189","MEAN_ELEMENT_THEORY":"SGP4","CLASSIFICATION_TYPE":"U","BSTAR":"0.00199400000000","TLE_LINE1":"1 47597U 21009BB  23140.76252946  .00029585  00000-0  19940-2 0  9999","MEAN_MOTION_DDOT":"0.0000000000000","ELEMENT_SET_NO":"999","OBJECT_NAME":"STARLINK-2002","SITE":"AFETR","FILE":"3913175","GP_ID":"232207543","MEAN_MOTION":"15.06451207","DECAY_DATE":null,"RCS_SIZE":"LARGE","CENTER_NAME":"EARTH","INCLINATION":"53.0539","ECCENTRICITY":"0.00008410","MEAN_MOTION_DOT":"0.00029585","ARG_OF_PERICENTER":"90.6709","OBJECT_TYPE":"PAYLOAD","PERIAPSIS":"546.474"},{"EPOCH":"2023-05-20T16:57:06.325344","TLE_LINE2":"2 47598  53.0542 288.4590 0001063  77.5234 282.5874 15.06451686126601","EPHEMERIS_TYPE":"0","OBJECT_ID":"2021-009BC","PERIOD":"95.589","BSTAR":"0.00196370000000","TLE_LINE1":"1 47598U 21009BC  23140.70632321  .00029130  00000-0  19637-2 0  9992","MEAN_MOTION_DDOT":"0.0000000000000","MEAN_ELEMENT_THEORY":"SGP4","CLASSIFICATION_TYPE":"U","RA_OF_ASC_NODE":"288.4590","TIME_SYSTEM":"UTC","REF_FRAME":"TEME","MEAN_ANOMALY":"282.5874","SEMIMAJOR_AXIS":"6925.190","REV_AT_EPOCH":"12660","LAUNCH_DATE":"2021-02-04","COUNTRY_CODE":"US","NORAD_CAT_ID":"47598","APOAPSIS":"547.791","ARG_OF_PERICENTER":"77.5234","MEAN_MOTION_DOT":"0.00029130","PERIAPSIS":"546.319","OBJECT_TYPE":"PAYLOAD","OBJECT_NAME":"STARLINK-2003","ELEMENT_SET_NO":"999","DECAY_DATE":null,"RCS_SIZE":"LARGE","CENTER_NAME":"EARTH","INCLINATION":"53.0542","ECCENTRICITY":"0.00010630","SITE":"AFETR","FILE":"3913175","GP_ID":"232207550","MEAN_MOTION":"15.06451686"},{"MEAN_MOTION":"15.06453921","GP_ID":"232207800","FILE":"3913175","SITE":"AFETR","ECCENTRICITY":"0.00011650","INCLINATION":"53.0545","RCS_SIZE":"LARGE","CENTER_NAME":"EARTH","DECAY_DATE":null,"ELEMENT_SET_NO":"999","OBJECT_NAME":"STARLINK-2004","PERIAPSIS":"546.242","OBJECT_TYPE":"PAYLOAD","MEAN_MOTION_DOT":"0.00033588","ARG_OF_PERICENTER":"74.4275","NORAD_CAT_ID":"47599","APOAPSIS":"547.855","COUNTRY_CODE":"US","LAUNCH_DATE":"2021-02-04","SEMIMAJOR_AXIS":"6925.183","REV_AT_EPOCH":"12673","MEAN_ANOMALY":"285.6843","REF_FRAME":"TEME","TIME_SYSTEM":"UTC","RA_OF_ASC_NODE":"278.5035","CLASSIFICATION_TYPE":"U","MEAN_ELEMENT_THEORY":"SGP4","BSTAR":"0.00225980000000","TLE_LINE1":"1 47599U 21009BD  23140.69618866  .00033588  00000-0  22598-2 0  9991","MEAN_MOTION_DDOT":"0.0000000000000","OBJECT_ID":"2021-009BD","PERIOD":"95.589","EPHEMERIS_TYPE":"0","TLE_LINE2":"2 47599  53.0545 278.5035 0001165  74.4275 285.6843 15.06453921126731","EPOCH":"2023-05-20T16:42:30.700224"},{"OBJECT_TYPE":"PAYLOAD","PERIAPSIS":"546.428","ARG_OF_PERICENTER":"81.4389","MEAN_MOTION_DOT":"0.00031158","INCLINATION":"53.0536","ECCENTRICITY":"0.00008920","DECAY_DATE":null,"CENTER_NAME":"EARTH","RCS_SIZE":"LARGE","MEAN_MOTION":"15.06454752","GP_ID":"232206294","SITE":"AFETR","FILE":"3913175","OBJECT_NAME":"STARLINK-2005","ELEMENT_SET_NO":"999","TLE_LINE1":"1 47600U 21009BE  23140.65563702  .00031158  00000-0  20983-2 0  9995","MEAN_MOTION_DDOT":"0.0000000000000","BSTAR":"0.00209830000000","CLASSIFICATION_TYPE":"U","MEAN_ELEMENT_THEORY":"SGP4","TLE_LINE2":"2 47600  53.0536 278.6582 0000892  81.4389 278.6701 15.06454752126730","EPOCH":"2023-05-20T15:44:07.038528","PERIOD":"95.589","OBJECT_ID":"2021-009BE","EPHEMERIS_TYPE":"0","COUNTRY_CODE":"US","APOAPSIS":"547.663","NORAD_CAT_ID":"47600","LAUNCH_DATE":"2021-02-04","RA_OF_ASC_NODE":"278.6582","TIME_SYSTEM":"UTC","MEAN_ANOMALY":"278.6701","SEMIMAJOR_AXIS":"6925.181","REV_AT_EPOCH":"12673","REF_FRAME":"TEME"},{"LAUNCH_DATE":"2021-02-04","COUNTRY_CODE":"US","APOAPSIS":"547.841","NORAD_CAT_ID":"47601","REF_FRAME":"TEME","MEAN_ANOMALY":"284.2128","SEMIMAJOR_AXIS":"6925.186","REV_AT_EPOCH":"12673","RA_OF_ASC_NODE":"278.4884","TIME_SYSTEM":"UTC","MEAN_ELEMENT_THEORY":"SGP4","CLASSIFICATION_TYPE":"U","TLE_LINE1":"1 47601U 21009BF  23140.69987364  .00032350  00000-0  21776-2 0  9990","MEAN_MOTION_DDOT":"0.0000000000000","BSTAR":"0.00217760000000","EPHEMERIS_TYPE":"0","OBJECT_ID":"2021-009BF","PERIOD":"95.589","EPOCH":"2023-05-20T16:47:49.082496","TLE_LINE2":"2 47601  53.0544 278.4884 0001142  75.8988 284.2128 15.06453173126736","SITE":"AFETR","FILE":"3913175","MEAN_MOTION":"15.06453173","GP_ID":"232207044","DECAY_DATE":null,"CENTER_NAME":"EARTH","RCS_SIZE":"LARGE","INCLINATION":"53.0544","ECCENTRICITY":"0.00011420","ELEMENT_SET_NO":"999","OBJECT_NAME":"STARLINK-2006","PERIAPSIS":"546.260","OBJECT_TYPE":"PAYLOAD","MEAN_MOTION_DOT":"0.00032350","ARG_OF_PERICENTER":"75.8988"},{"MEAN_ELEMENT_THEORY":"SGP4","CLASSIFICATION_TYPE":"U","BSTAR":"0.00197750000000","TLE_LINE1":"1 47602U 21009BG  23140.72106742  .00029336  00000-0  19775-2 0  9994","MEAN_MOTION_DDOT":"0.0000000000000","EPHEMERIS_TYPE":"0","OBJECT_ID":"2021-009BG","PERIOD":"95.589","EPOCH":"2023-05-20T17:18:20.225088","TLE_LINE2":"2 47602  53.0541 288.3911 0001158  89.0253 271.0869 15.06449874127194","LAUNCH_DATE":"2021-02-04","COUNTRY_CODE":"US","NORAD_CAT_ID":"47602","APOAPSIS":"547.863","REF_FRAME":"TEME","MEAN_ANOMALY":"271.0869","REV_AT_EPOCH":"12719","SEMIMAJOR_AXIS":"6925.196","RA_OF_ASC_NODE":"288.3911","TIME_SYSTEM":"UTC","PERIAPSIS":"546.259","OBJECT_TYPE":"PAYLOAD","MEAN_MOTION_DOT":"0.00029336","ARG_OF_PERICENTER":"89.0253","SITE":"AFETR","FILE":"3912875","MEAN_MOTION":"15.06449874","GP_ID":"232179659","DECAY_DATE":null,"CENTER_NAME":"EARTH","RCS_SIZE":"LARGE","ECCENTRICITY":"0.00011580","INCLINATION":"53.0541","ELEMENT_SET_NO":"999","OBJECT_NAME":"STARLINK-2007"},{"LAUNCH_DATE":"2021-02-04","COUNTRY_CODE":"US","NORAD_CAT_ID":"47603","APOAPSIS":"547.781","REF_FRAME":"TEME","MEAN_ANOMALY":"264.3249","SEMIMAJOR_AXIS":"6925.206","REV_AT_EPOCH":"12618","RA_OF_ASC_NODE":"318.0439","TIME_SYSTEM":"UTC","MEAN_ELEMENT_THEORY":"SGP4","CLASSIFICATION_TYPE":"U","MEAN_MOTION_DDOT":"0.0000000000000","TLE_LINE1":"1 47603U 21009BH  23140.79939221  .00022838  00000-0  15452-2 0  9996","BSTAR":"0.00154520000000","EPHEMERIS_TYPE":"0","PERIOD":"95.589","OBJECT_ID":"2021-009BH","EPOCH":"2023-05-20T19:11:07.486944","TLE_LINE2":"2 47603  53.0524 318.0439 0001025  95.7857 264.3249 15.06446491126186","SITE":"AFETR","FILE":"3913175","MEAN_MOTION":"15.06446491","GP_ID":"232207301","DECAY_DATE":null,"RCS_SIZE":"LARGE","CENTER_NAME":"EARTH","ECCENTRICITY":"0.00010250","INCLINATION":"53.0524","ELEMENT_SET_NO":"999","OBJECT_NAME":"STARLINK-2008","OBJECT_TYPE":"PAYLOAD","PERIAPSIS":"546.361","MEAN_MOTION_DOT":"0.00022838","ARG_OF_PERICENTER":"95.7857"},{"SITE":"AFETR","FILE":"3913175","MEAN_MOTION":"15.06455646","GP_ID":"232206794","DECAY_DATE":null,"CENTER_NAME":"EARTH","RCS_SIZE":"LARGE","ECCENTRICITY":"0.00011270","INCLINATION":"53.0534","ELEMENT_SET_NO":"999","OBJECT_NAME":"STARLINK-2021","OBJECT_TYPE":"PAYLOAD","PERIAPSIS":"546.263","MEAN_MOTION_DOT":"0.00029126","ARG_OF_PERICENTER":"67.2066","LAUNCH_DATE":"2021-02-04","COUNTRY_CODE":"US","NORAD_CAT_ID":"47604","APOAPSIS":"547.823","REF_FRAME":"TEME","MEAN_ANOMALY":"292.9042","SEMIMAJOR_AXIS":"6925.178","REV_AT_EPOCH":"12661","RA_OF_ASC_NODE":"288.0604","TIME_SYSTEM":"UTC","MEAN_ELEMENT_THEORY":"SGP4","CLASSIFICATION_TYPE":"U","BSTAR":"0.00196320000000","TLE_LINE1":"1 47604U 21009BJ  23140.79478501  .00029126  00000-0  19632-2 0  9997","MEAN_MOTION_DDOT":"0.0000000000000","EPHEMERIS_TYPE":"0","PERIOD":"95.589","OBJECT_ID":"2021-009BJ","EPOCH":"2023-05-20T19:04:29.424864","TLE_LINE2":"2 47604  53.0534 288.0604 0001127  67.2066 292.9042 15.06455646126615"},{"MEAN_MOTION":"15.06453781","GP_ID":"232207544","FILE":"3913175","SITE":"AFETR","ECCENTRICITY":"0.00012020","INCLINATION":"53.0543","CENTER_NAME":"EARTH","RCS_SIZE":"LARGE","DECAY_DATE":null,"ELEMENT_SET_NO":"999","OBJECT_NAME":"STARLINK-2024","OBJECT_TYPE":"PAYLOAD","PERIAPSIS":"546.216","MEAN_MOTION_DOT":"0.00030155","ARG_OF_PERICENTER":"79.1319","APOAPSIS":"547.881","NORAD_CAT_ID":"47606","COUNTRY_CODE":"US","LAUNCH_DATE":"2021-02-04","SEMIMAJOR_AXIS":"6925.184","REV_AT_EPOCH":"12661","MEAN_ANOMALY":"280.9805","REF_FRAME":"TEME","TIME_SYSTEM":"UTC","RA_OF_ASC_NODE":"288.0461","CLASSIFICATION_TYPE":"U","MEAN_ELEMENT_THEORY":"SGP4","MEAN_MOTION_DDOT":"0.0000000000000","TLE_LINE1":"1 47606U 21009BL  23140.79847283  .00030155  00000-0  20317-2 0  9992","BSTAR":"0.00203170000000","OBJECT_ID":"2021-009BL","PERIOD":"95.589","EPHEMERIS_TYPE":"0","TLE_LINE2":"2 47606  53.0543 288.0461 0001202  79.1319 280.9805 15.06453781126617","EPOCH":"2023-05-20T19:09:48.052512"},{"MEAN_ELEMENT_THEORY":"SGP4","CLASSIFICATION_TYPE":"U","BSTAR":"0.00219760000000","TLE_LINE1":"1 47607U 21009BM  23140.81186754  .00034697  00000-0  21976-2 0  9992","MEAN_MOTION_DDOT":"0.0000000000000","EPHEMERIS_TYPE":"0","PERIOD":"95.449","OBJECT_ID":"2021-009BM","EPOCH":"2023-05-20T19:29:05.355456","TLE_LINE2":"2 47607  53.0552 287.6842 0001360 312.7477  47.3399 15.08666910126617","LAUNCH_DATE":"2021-02-04","NORAD_CAT_ID":"47607","APOAPSIS":"541.215","COUNTRY_CODE":"US","REF_FRAME":"TEME","REV_AT_EPOCH":"12661","SEMIMAJOR_AXIS":"6918.410","MEAN_ANOMALY":"47.3399","TIME_SYSTEM":"UTC","RA_OF_ASC_NODE":"287.6842","PERIAPSIS":"539.334","OBJECT_TYPE":"PAYLOAD","MEAN_MOTION_DOT":"0.00034697","ARG_OF_PERICENTER":"312.7477","FILE":"3913175","SITE":"AFETR","GP_ID":"232207551","MEAN_MOTION":"15.08666910","RCS_SIZE":"LARGE","CENTER_NAME":"EARTH","DECAY_DATE":null,"ECCENTRICITY":"0.00013600","INCLINATION":"53.0552","ELEMENT_SET_NO":"999","OBJECT_NAME":"STARLINK-2025"}];
